{"type":"FeatureCollection","features":[{"type":"Feature","properties":{"shapeName":"Port of Spain","shapeISO":""},"geometry":{"type":"Polygon","coordinates":[[[-61.550815582,10.676527977],[-61.548194885,10.675971985],[-61.547359467,10.673751831],[-61.545417786,10.674584389],[-61.54208374000001,10.673195839],[-61.538192749,10.670140266],[-61.537639618,10.667638779],[-61.539028168,10.665970802],[-61.537918091,10.665416718],[-61.538192749,10.659860611],[-61.537082672,10.658473015],[-61.528751373,10.657362938],[-61.523750305,10.652638435],[-61.514862061,10.649027824],[-61.51374816900001,10.645695686],[-61.510692596,10.646528244],[-61.50958252,10.645139694],[-61.50819397,10.646528244],[-61.507637024,10.645415306],[-61.50958252,10.643473625],[-61.508750916,10.640971184],[-61.50402832000001,10.639861107],[-61.50402832000001,10.641248703],[-61.499584198,10.641248703],[-61.497360229,10.639371872],[-61.494235992,10.639503479],[-61.498985291,10.648132324],[-61.49896621700001,10.652409554],[-61.494159698,10.656710625],[-61.494152069,10.65941906],[-61.49839019800001,10.66642189],[-61.498886108,10.673924446],[-61.501064301,10.675027847],[-61.505340576,10.671252251],[-61.50856399500001,10.671268463],[-61.51712799100001,10.676533699],[-61.520347595,10.67835331],[-61.52408981300001,10.678373337],[-61.525695801,10.681038857],[-61.527828217,10.681050301],[-61.528404236,10.678395271],[-61.53163147,10.67732048],[-61.54499435400001,10.677912712],[-61.550815582,10.676527977]]]}},{"type":"Feature","properties":{"shapeName":"San Fernando","shapeISO":""},"geometry":{"type":"Polygon","coordinates":[[[-61.467639923,10.310967445],[-61.462081909,10.306249619],[-61.45823288,10.306206703],[-61.455944061,10.30098629],[-61.45734787,10.297065735],[-61.460414886,10.292115211],[-61.462039948,10.292326927],[-61.468688965,10.286314964],[-61.468471527,10.284304619],[-61.47152710000001,10.279859543],[-61.470695496,10.273194313],[-61.475971222,10.265138626],[-61.479305267,10.262916565],[-61.47991943400001,10.259277344],[-61.487617493,10.253405571],[-61.49041748,10.253473282],[-61.491527557,10.251250267],[-61.50043487500001,10.248195648],[-61.501251221,10.246527672],[-61.487522125,10.247815132],[-61.481082916,10.253165245],[-61.474132538,10.254752159],[-61.464481354,10.259563446],[-61.45701217700001,10.261147499],[-61.45432663,10.26003933],[-61.447380066,10.260531425],[-61.44480514500001,10.265130997],[-61.440402985,10.268593788],[-61.438259125,10.273440361],[-61.438220978,10.282059669],[-61.436023712,10.286906242],[-61.434940338,10.297139168],[-61.43056488,10.313261986],[-61.436985016,10.314910889],[-61.44073486300001,10.310642242],[-61.467639923,10.310967445]]]}},{"type":"Feature","properties":{"shapeName":"Arima","shapeISO":""},"geometry":{"type":"Polygon","coordinates":[[[-61.276100159,10.605146408],[-61.26317215000001,10.608328819],[-61.26263427700001,10.610516548],[-61.262619019,10.613190651],[-61.26581955000001,10.615907669],[-61.26792144800001,10.620769501],[-61.267848969,10.630994797],[-61.26943969700001,10.63419342],[-61.268310547,10.644418716],[-61.285972595,10.65525341],[-61.289722443,10.655268669],[-61.291881561,10.653111458],[-61.288715363,10.643424988],[-61.291412354,10.641309738],[-61.28983306900001,10.636447906],[-61.29256057700001,10.632141113],[-61.289897919,10.626220703],[-61.290454865,10.622994423],[-61.292095184,10.617632866],[-61.29693222,10.617101669],[-61.297489166,10.614412308],[-61.287887573,10.607909203],[-61.276100159,10.605146408]]]}},{"type":"Feature","properties":{"shapeName":"Diego Martin","shapeISO":""},"geometry":{"type":"MultiPolygon","coordinates":[[[[-61.511249542,10.771529198],[-61.51374816900001,10.771529198],[-61.514583588,10.769582748],[-61.51041793800001,10.768195152],[-61.509304047,10.771248817],[-61.511249542,10.771529198]]],[[[-61.50819397,10.764860153],[-61.509860992,10.764307022],[-61.510139465,10.7620821],[-61.50819397,10.762915611],[-61.50819397,10.764860153]]],[[[-61.51712799100001,10.676533699],[-61.516586304,10.68312645],[-61.50851821900001,10.686878204],[-61.501522064,10.700774193],[-61.49563598600001,10.705573082],[-61.497188568,10.720528603],[-61.49727630600001,10.755417824],[-61.50291824300001,10.755694389],[-61.504581451,10.759861946],[-61.509304047,10.761805534],[-61.512916565,10.761249542],[-61.512084961,10.759305954],[-61.514583588,10.758472443],[-61.51374816900001,10.756250381],[-61.521526337,10.751249313],[-61.529582977,10.75402832],[-61.53125,10.753195763],[-61.53180694600001,10.754584312],[-61.53263855,10.753472328],[-61.53569412200001,10.753749847],[-61.537361145,10.751249313],[-61.540138245,10.75097084],[-61.54208374000001,10.74847126],[-61.54624939,10.74708271],[-61.548751831,10.749583244],[-61.558750153,10.749583244],[-61.561527252,10.751526833],[-61.56930542,10.749027252],[-61.57069397,10.745972633],[-61.573749542,10.745416641],[-61.585414886,10.74708271],[-61.592082977,10.745416641],[-61.59513855,10.747361183],[-61.598472595,10.746249199],[-61.60874939,10.74847126],[-61.61458206200001,10.746526718],[-61.617637634,10.741806984],[-61.62097168,10.740973473],[-61.619861603,10.738751411],[-61.620693207,10.737360001],[-61.623195648,10.736249924],[-61.626525879,10.737081528],[-61.627082825,10.734581947],[-61.632637024,10.730416298],[-61.637084961,10.731249809],[-61.63652801500001,10.728194237],[-61.640415192,10.726528168],[-61.643749237,10.719861031],[-61.65152740500001,10.71736145],[-61.65486145,10.718194962],[-61.65680694600001,10.716526985],[-61.661529541,10.716528893],[-61.662639618,10.714027405],[-61.667362213,10.71347332],[-61.667640686,10.711528778],[-61.670970917,10.710972786],[-61.669303894,10.708749771],[-61.67124939,10.707360268],[-61.669303894,10.70652771],[-61.667915344,10.700971603],[-61.663749695,10.702083588],[-61.663749695,10.704305649],[-61.662082672,10.701806068],[-61.663192749,10.697917938],[-61.66847229,10.692362785],[-61.667362213,10.689305305],[-61.663471222,10.688472748],[-61.661804199,10.68652916],[-61.662082672,10.684028625],[-61.665138245,10.682082176],[-61.65763855,10.681249619],[-61.65430450400001,10.678471565],[-61.65152740500001,10.67930603],[-61.65152740500001,10.680418015],[-61.648750305,10.680137634],[-61.648750305,10.678471565],[-61.645694733,10.679862022],[-61.63652801500001,10.680137634],[-61.637359619,10.677915573],[-61.635971069,10.677638054],[-61.633472443,10.679862022],[-61.636249542,10.673195839],[-61.636249542,10.668748856],[-61.63124847400001,10.666805267],[-61.63124847400001,10.66569519],[-61.627361298,10.666251183],[-61.62208175700001,10.670693398],[-61.615139008,10.672362328],[-61.614307404,10.6754179],[-61.61624908400001,10.674584389],[-61.61847305300001,10.678750038],[-61.62263870200001,10.677915573],[-61.624027252,10.680137634],[-61.622360229,10.681249619],[-61.618751526,10.680137634],[-61.61819458,10.681528091],[-61.613471985,10.682915688],[-61.610416412,10.688195229],[-61.60736084,10.688195229],[-61.604305267,10.690694809],[-61.602359772,10.69041729],[-61.597362518,10.680972099],[-61.594028473,10.684584618],[-61.592918396,10.682638168],[-61.58291626,10.682641029],[-61.57402801500001,10.67930603],[-61.57291793800001,10.677083969],[-61.570972443,10.678471565],[-61.56791687,10.677083969],[-61.56763839700001,10.678750038],[-61.565139771,10.679027557],[-61.563472748,10.677362442],[-61.563751221,10.6754179],[-61.560974121,10.673195839],[-61.550815582,10.676527977],[-61.54499435400001,10.677912712],[-61.53163147,10.67732048],[-61.528404236,10.678395271],[-61.527828217,10.681050301],[-61.525695801,10.681038857],[-61.52408981300001,10.678373337],[-61.520347595,10.67835331],[-61.51712799100001,10.676533699]]],[[[-61.726528168,10.707083702],[-61.730415344,10.705694199],[-61.730415344,10.704305649],[-61.72319412200001,10.703749657],[-61.720695496,10.699584007],[-61.718471527,10.699584007],[-61.71736145,10.697917938],[-61.717082977,10.693751335],[-61.71875,10.693195343],[-61.717639923,10.69041729],[-61.720695496,10.686250687],[-61.719581604,10.685417175],[-61.7159729,10.690694809],[-61.712360382,10.689861298],[-61.710693359,10.690973282],[-61.711528778,10.698192596],[-61.712638855,10.699861526],[-61.717918396,10.700694084],[-61.717082977,10.701527596],[-61.721805573,10.705694199],[-61.726528168,10.707083702]]],[[[-61.67791748,10.705140114],[-61.680137634,10.704859734],[-61.680137634,10.702083588],[-61.681526184,10.703472137],[-61.68347168,10.702362061],[-61.685417175,10.70402813],[-61.687637329,10.703472137],[-61.689861298,10.700415611],[-61.692359924,10.700415611],[-61.695415497,10.698192596],[-61.695415497,10.694028854],[-61.69708252,10.692362785],[-61.695415497,10.691527367],[-61.69569397,10.689026833],[-61.698749542,10.687916756],[-61.70375061,10.681528091],[-61.702083588,10.681528091],[-61.698192596,10.685138702],[-61.69708252,10.681587219],[-61.694026947,10.68319416],[-61.693473816,10.680693626],[-61.688472748,10.681249619],[-61.687084198,10.679583549],[-61.684860229,10.679583549],[-61.683193207,10.680693626],[-61.68624877900001,10.682641029],[-61.683750153,10.683472633],[-61.682918549,10.687360764],[-61.681251526,10.687360764],[-61.680416107,10.684304237],[-61.678470612,10.686804771],[-61.676250458,10.685973167],[-61.678470612,10.695138931],[-61.680137634,10.696249008],[-61.679584503,10.700139999],[-61.675971985,10.697917938],[-61.675693512,10.69597435],[-61.67458343500001,10.697640419],[-61.67791748,10.705140114]]],[[[-61.752639771,10.700415611],[-61.754581451,10.700971603],[-61.758750916,10.698192596],[-61.757083893,10.689582825],[-61.760139465,10.688751221],[-61.760692596,10.68652916],[-61.756526947,10.684028625],[-61.758472443,10.681805611],[-61.757915497,10.678471565],[-61.76374816900001,10.674305916],[-61.764583588,10.670970917],[-61.75958252,10.671806335],[-61.75624847400001,10.675694466],[-61.747360229,10.672639847],[-61.74236297600001,10.673195839],[-61.74652862500001,10.678750038],[-61.75291824300001,10.679027557],[-61.75624847400001,10.680972099],[-61.754581451,10.68319416],[-61.755973816,10.686250687],[-61.75291824300001,10.685694695],[-61.752082825,10.688472748],[-61.74763870200001,10.687916756],[-61.74708175700001,10.690694809],[-61.742916107,10.687639236],[-61.74319458,10.685417175],[-61.741527557,10.684304237],[-61.740139008,10.684860229],[-61.737361908,10.683751106],[-61.737361908,10.682082176],[-61.73597335800001,10.68319416],[-61.734027863,10.681249619],[-61.730693817,10.680972099],[-61.730693817,10.683472633],[-61.739028931,10.693472862],[-61.748195648,10.699584007],[-61.752639771,10.700415611]]],[[[-61.65263748200001,10.677083969],[-61.65486145,10.675971985],[-61.652915955,10.675138474],[-61.65263748200001,10.677083969]]],[[[-61.657081604,10.670417786],[-61.661804199,10.669861794],[-61.666805267,10.666251183],[-61.666248322,10.664583206],[-61.660972595,10.664304733],[-61.660415649,10.662917137],[-61.656528473,10.662361145],[-61.653751373,10.664029121],[-61.654582977,10.661251068],[-61.652362823,10.662082672],[-61.65041732800001,10.660972595],[-61.648471832,10.662082672],[-61.649028778,10.664304733],[-61.64541626,10.666526794],[-61.647361755,10.670140266],[-61.655971527,10.668471336],[-61.657081604,10.670417786]]],[[[-61.623195648,10.663194656],[-61.625694275,10.662361145],[-61.625694275,10.660695076],[-61.622360229,10.660972595],[-61.621807098,10.662361145],[-61.623195648,10.663194656]]],[[[-61.629581451,10.660416603],[-61.631526947,10.660140991],[-61.630695343,10.657081604],[-61.628749847,10.658750534],[-61.629581451,10.660416603]]]]}},{"type":"Feature","properties":{"shapeName":"San Juan-Laventille","shapeISO":""},"geometry":{"type":"Polygon","coordinates":[[[-61.497360229,10.639371872],[-61.498195648,10.638195038],[-61.50291824300001,10.637916565],[-61.50347137500001,10.627360344],[-61.500694275,10.622362137],[-61.495140076,10.621806145],[-61.488750458,10.616526604],[-61.488193512,10.608751297],[-61.48597335800001,10.605417252],[-61.484306335,10.605973244],[-61.485416412,10.604861259],[-61.484584808,10.601528168],[-61.477085114,10.589307785],[-61.475418091,10.577638626],[-61.469028473,10.566249847],[-61.469860077,10.56097126],[-61.467639923,10.558195114],[-61.464584351,10.544028282],[-61.462360382,10.54347229],[-61.46402740500001,10.540579796],[-61.458293915,10.540782928],[-61.456127167,10.547203064],[-61.453411102,10.549905777],[-61.447467804,10.562261581],[-61.43835067700001,10.565461159],[-61.415519714,10.564265251],[-61.421474457,10.603630066],[-61.42565918,10.617641449],[-61.42827224700001,10.634346962],[-61.428245544,10.639719009],[-61.423892975,10.647776604],[-61.419078827,10.653122902],[-61.420108795,10.656356812],[-61.424407959,10.66012764],[-61.421691895,10.663865089],[-61.426494598,10.672477722],[-61.42647171,10.678928375],[-61.429683685,10.68325901],[-61.428573608,10.690743446],[-61.432865143,10.700428963],[-61.430721283,10.705247879],[-61.432849884,10.710038185],[-61.431228638,10.715377808],[-61.433361053,10.718083382],[-61.433879852,10.722389221],[-61.439804077,10.7304039],[-61.430130005,10.734657288],[-61.42211532600001,10.742079735],[-61.415092468,10.743133545],[-61.39255523700001,10.734485626],[-61.388805389,10.731776237],[-61.379695892,10.736035347],[-61.374851227,10.741352081],[-61.37053299,10.739208221],[-61.36678314200001,10.739192009],[-61.359287262,10.734341621],[-61.359340668,10.780238152],[-61.352378845,10.786050797],[-61.35291290300001,10.789252281],[-61.35021209700001,10.791360855],[-61.345973969,10.800423622],[-61.345535278,10.807084084],[-61.351528168,10.812084198],[-61.35736084,10.813194275],[-61.361251831,10.811528206],[-61.365139008,10.812361717],[-61.366527557,10.809583664],[-61.36458206200001,10.806249619],[-61.365139008,10.801804543],[-61.36847305300001,10.800139427],[-61.374305725,10.792084694],[-61.38180542,10.789305687],[-61.39263916,10.787916183],[-61.39402771000001,10.785971642],[-61.391529083,10.782637596],[-61.39263916,10.780971527],[-61.40263748200001,10.779583931],[-61.406528473,10.780971527],[-61.408473969,10.785415649],[-61.413192749,10.785415649],[-61.420139313,10.779583931],[-61.419582367,10.775694847],[-61.426528931,10.773195267],[-61.427639008,10.768472672],[-61.425140381,10.76625061],[-61.424304962,10.762915611],[-61.42874908400001,10.759305954],[-61.437637329,10.759028435],[-61.442359924,10.761805534],[-61.44263839700001,10.764028549],[-61.439861298,10.765694618],[-61.44374847400001,10.767916679],[-61.443473816,10.771529198],[-61.44097137500001,10.773195267],[-61.442081451,10.776251793],[-61.44791793800001,10.774861336],[-61.450695038,10.772360802],[-61.450973511,10.76763916],[-61.452640533,10.766804695],[-61.452640533,10.763471603],[-61.454582214,10.762638092],[-61.460414886,10.763194084],[-61.462360382,10.766529083],[-61.461528778,10.774861336],[-61.46513748200001,10.774582863],[-61.468471527,10.776527405],[-61.474029541,10.775694847],[-61.473751068,10.777083397],[-61.475971222,10.778193474],[-61.47680664100001,10.775694847],[-61.475139618,10.775138855],[-61.475139618,10.773470879],[-61.47680664100001,10.771248817],[-61.472362518,10.76763916],[-61.47208404500001,10.764584541],[-61.476249695,10.758477211],[-61.479862213,10.757083893],[-61.480693817,10.755140305],[-61.482082367,10.755694389],[-61.481529236,10.754584312],[-61.488193512,10.753749847],[-61.49041748,10.757916451],[-61.490139008,10.760137558],[-61.49236297600001,10.76069355],[-61.492637634,10.762915611],[-61.494026184,10.761805534],[-61.492916107,10.759860039],[-61.494304657,10.759584427],[-61.494026184,10.757083893],[-61.495693207,10.757639885],[-61.49727630600001,10.755417824],[-61.497188568,10.720528603],[-61.49563598600001,10.705573082],[-61.501522064,10.700774193],[-61.50851821900001,10.686878204],[-61.516586304,10.68312645],[-61.51712799100001,10.676533699],[-61.50856399500001,10.671268463],[-61.505340576,10.671252251],[-61.501064301,10.675027847],[-61.498886108,10.673924446],[-61.49839019800001,10.66642189],[-61.494152069,10.65941906],[-61.494159698,10.656710625],[-61.49896621700001,10.652409554],[-61.498985291,10.648132324],[-61.494235992,10.639503479],[-61.497360229,10.639371872]]]}},{"type":"Feature","properties":{"shapeName":"Tunapuna/Piarco","shapeISO":""},"geometry":{"type":"Polygon","coordinates":[[[-61.415519714,10.564265251],[-61.368980408,10.565682411],[-61.366928101,10.5807724],[-61.365833282,10.581291199],[-61.359474182,10.575881958],[-61.356235504,10.578010559],[-61.35308075000001,10.568327904],[-61.33753585800001,10.568260193],[-61.335353851,10.568775177],[-61.331565857,10.574712753],[-61.32349777200001,10.575725555],[-61.325065613,10.581686974],[-61.320774078,10.584906578],[-61.305747986,10.584841728],[-61.297203064,10.580470085],[-61.292934418,10.580451965],[-61.290218353,10.582584381],[-61.284854889,10.583132744],[-61.280570984,10.579302788],[-61.275192261,10.58199501],[-61.268215179,10.583060265],[-61.259666443,10.579213142],[-61.25482940700001,10.579192162],[-61.248893738,10.586216927],[-61.245124817,10.588868141],[-61.23866272,10.590459824],[-61.236743927,10.592592239],[-61.228889465,10.601756096],[-61.214939117,10.602744102],[-61.212306976,10.600065231],[-61.207988739,10.600047112],[-61.2057724,10.609184265],[-61.20199203500001,10.612931252],[-61.19919586200001,10.623681068],[-61.204517365,10.628556252],[-61.202877045,10.631785393],[-61.202819824,10.63934803],[-61.214561462,10.650658607],[-61.224758148,10.652312279],[-61.225826263,10.656639099],[-61.223098755,10.65981102],[-61.222557068,10.663038254],[-61.226295471,10.665236473],[-61.225761414,10.667370796],[-61.221427917,10.669491768],[-61.217651367,10.673797607],[-61.217624664,10.678590775],[-61.213863373,10.680760384],[-61.210597992,10.687722206],[-61.21057891800001,10.690947533],[-61.213222504,10.694701195],[-61.209407806,10.710753441],[-61.212627411,10.713983536],[-61.220703125,10.715097427],[-61.22179031400001,10.71723175],[-61.224967957,10.718330383],[-61.23143768300001,10.716741562],[-61.241641998,10.720514297],[-61.244861603,10.724263191],[-61.24376297,10.72799778],[-61.242141724,10.730688095],[-61.237865448,10.730674744],[-61.231937408,10.725309372],[-61.230361938,10.727953911],[-61.22713089,10.72851181],[-61.211528778,10.727377892],[-61.19808578500001,10.729467392],[-61.192131042,10.734276772],[-61.18945694,10.74230957],[-61.182979584,10.747116089],[-61.178646088,10.753486633],[-61.178642273,10.757786751],[-61.17597580000001,10.759906769],[-61.170600891,10.759894371],[-61.166843414,10.761492729],[-61.157661438,10.760953903],[-61.153373718,10.76949501],[-61.15280151400001,10.774310112],[-61.156047821,10.788188934],[-61.16143798800001,10.79616642],[-61.16686630200001,10.797259331],[-61.167388916,10.795658112],[-61.170051575,10.79566288],[-61.170028687,10.809306145],[-61.173751831,10.810137749],[-61.176528931,10.809027672],[-61.183750153,10.804026604],[-61.184860229,10.799860954],[-61.188472748,10.799860954],[-61.190692902,10.797917366],[-61.194583893,10.800416946],[-61.197360992,10.800416946],[-61.202083588,10.797361374],[-61.21291732800001,10.796251297],[-61.217918396,10.79930687],[-61.221248627,10.794306755],[-61.235137939,10.795695305],[-61.236251831,10.793473244],[-61.24180603,10.793194771],[-61.249584198,10.795972824],[-61.25291824300001,10.792360306],[-61.264305115,10.795418739],[-61.275695801,10.794046402],[-61.277362823,10.796251297],[-61.280139923,10.795972824],[-61.282081604,10.797917366],[-61.28458404500001,10.797361374],[-61.285972595,10.798750877],[-61.288749695,10.797082901],[-61.29347229,10.797917366],[-61.295417786,10.795972824],[-61.300971985,10.795972824],[-61.307361603,10.79930687],[-61.314582825,10.799027443],[-61.33041763300001,10.801527023],[-61.334583282,10.804582596],[-61.344028473,10.805695534],[-61.345535278,10.807084084],[-61.345973969,10.800423622],[-61.35021209700001,10.791360855],[-61.35291290300001,10.789252281],[-61.352378845,10.786050797],[-61.359340668,10.780238152],[-61.359287262,10.734341621],[-61.36678314200001,10.739192009],[-61.37053299,10.739208221],[-61.374851227,10.741352081],[-61.379695892,10.736035347],[-61.388805389,10.731776237],[-61.39255523700001,10.734485626],[-61.415092468,10.743133545],[-61.42211532600001,10.742079735],[-61.430130005,10.734657288],[-61.439804077,10.7304039],[-61.433879852,10.722389221],[-61.433361053,10.718083382],[-61.431228638,10.715377808],[-61.432849884,10.710038185],[-61.430721283,10.705247879],[-61.432865143,10.700428963],[-61.428573608,10.690743446],[-61.429683685,10.68325901],[-61.42647171,10.678928375],[-61.426494598,10.672477722],[-61.421691895,10.663865089],[-61.424407959,10.66012764],[-61.420108795,10.656356812],[-61.419078827,10.653122902],[-61.423892975,10.647776604],[-61.428245544,10.639719009],[-61.42827224700001,10.634346962],[-61.42565918,10.617641449],[-61.421474457,10.603630066],[-61.415519714,10.564265251]],[[-61.276100159,10.605146408],[-61.287887573,10.607909203],[-61.297489166,10.614412308],[-61.29693222,10.617101669],[-61.292095184,10.617632866],[-61.290454865,10.622994423],[-61.289897919,10.626220703],[-61.29256057700001,10.632141113],[-61.28983306900001,10.636447906],[-61.291412354,10.641309738],[-61.288715363,10.643424988],[-61.291881561,10.653111458],[-61.289722443,10.655268669],[-61.285972595,10.65525341],[-61.268310547,10.644418716],[-61.26943969700001,10.63419342],[-61.267848969,10.630994797],[-61.26792144800001,10.620769501],[-61.26581955000001,10.615907669],[-61.262619019,10.613190651],[-61.26263427700001,10.610516548],[-61.26317215000001,10.608328819],[-61.276100159,10.605146408]]]}},{"type":"Feature","properties":{"shapeName":"Couva-Tabaquite-Talparo","shapeISO":""},"geometry":{"type":"Polygon","coordinates":[[[-61.43056488,10.313261986],[-61.423595428,10.318087578],[-61.41506958,10.312666893],[-61.411880493,10.307794571],[-61.405464172,10.315289497],[-61.394721985,10.317954063],[-61.394710541,10.32009697],[-61.397396088,10.322252274],[-61.397384644,10.323871613],[-61.394683838,10.3254776],[-61.388809204,10.328165054],[-61.370101929,10.326459885],[-61.357803345,10.328546524],[-61.355068207,10.335535049],[-61.3475914,10.337120056],[-61.342750549,10.340335846],[-61.334716797,10.339775085],[-61.321388245,10.331093788],[-61.315525055,10.331590652],[-61.315013885,10.329969406],[-61.311790466,10.331573486],[-61.309593201,10.335326195],[-61.299987793,10.336901665],[-61.294109344,10.331492424],[-61.289291382,10.330946922],[-61.288791656,10.327705383],[-61.28186035200001,10.324958801],[-61.279197693,10.327137947],[-61.27541732800001,10.327120781],[-61.272220612,10.324391365],[-61.258361816,10.318421364],[-61.25677490200001,10.31517601],[-61.253005981,10.320540428],[-61.25087738,10.320530891],[-61.250907898,10.316196442],[-61.242919922,10.308634758],[-61.242729187,10.305825233],[-61.236507416,10.306461334],[-61.232223511,10.310729027],[-61.228439331,10.317712784],[-61.215579987,10.31765461],[-61.211791992,10.325210571],[-61.211105347,10.348356247],[-61.212692261,10.351078033],[-61.206703186,10.361291885],[-61.20608139,10.374769211],[-61.202812195,10.381756783],[-61.202781677,10.386043549],[-61.207572937,10.390399933],[-61.21825027500001,10.392591476],[-61.224143982,10.395856857],[-61.21978759800001,10.40231514],[-61.219223022,10.408219337],[-61.212738037,10.414668083],[-61.20621109000001,10.425928116],[-61.199192047,10.433679581],[-61.19909668,10.445331573],[-61.196937561,10.449085236],[-61.196365356,10.455560684],[-61.197914124,10.457187653],[-61.217220306,10.459416389],[-61.219299316,10.465904236],[-61.212802887,10.472877502],[-61.217105865,10.473944664],[-61.220302582,10.47667408],[-61.220287323,10.478816986],[-61.216472626,10.482039452],[-61.215927124,10.484752655],[-61.208927155,10.489532471],[-61.206768036,10.492762566],[-61.20173645,10.516987801],[-61.202796936,10.520231247],[-61.207572937,10.521871567],[-61.224720001,10.522470474],[-61.224132538,10.530566216],[-61.216018677,10.537532806],[-61.219226837,10.539166451],[-61.219776154,10.541884422],[-61.21975708,10.544028282],[-61.215938568,10.547250748],[-61.215919495,10.549394608],[-61.217514038,10.551545143],[-61.22290802,10.552663803],[-61.217975616,10.563980103],[-61.222766876,10.569383621],[-61.221126556,10.572615623],[-61.22108078,10.577999115],[-61.236743927,10.592592239],[-61.23866272,10.590459824],[-61.245124817,10.588868141],[-61.248893738,10.586216927],[-61.25482940700001,10.579192162],[-61.259666443,10.579213142],[-61.268215179,10.583060265],[-61.275192261,10.58199501],[-61.280570984,10.579302788],[-61.284854889,10.583132744],[-61.290218353,10.582584381],[-61.292934418,10.580451965],[-61.297203064,10.580470085],[-61.305747986,10.584841728],[-61.320774078,10.584906578],[-61.325065613,10.581686974],[-61.32349777200001,10.575725555],[-61.331565857,10.574712753],[-61.335353851,10.568775177],[-61.33753585800001,10.568260193],[-61.35308075000001,10.568327904],[-61.356235504,10.578010559],[-61.359474182,10.575881958],[-61.365833282,10.581291199],[-61.366928101,10.5807724],[-61.368980408,10.565682411],[-61.366600037,10.552763939],[-61.363922119,10.549513817],[-61.36393737800001,10.546798706],[-61.364505768,10.53979969],[-61.373134613,10.531788826],[-61.37745285,10.530712128],[-61.377494812,10.524234772],[-61.375904083,10.520989418],[-61.369995117,10.519343376],[-61.36787796,10.517190933],[-61.36847305300001,10.512907028],[-61.374362946,10.51021862],[-61.371177673,10.504822731],[-61.373886108,10.503214836],[-61.392635345,10.503822327],[-61.39366531400001,10.505970001],[-61.396888733,10.505459785],[-61.400650024,10.501714706],[-61.407623291,10.499602318],[-61.415153503,10.499635696],[-61.424194336,10.507723808],[-61.425743103,10.51854229],[-61.430065155,10.51636982],[-61.433807373,10.516386986],[-61.43756485,10.513212204],[-61.44396209700001,10.520765305],[-61.44878006,10.522930145],[-61.46875,10.522889137],[-61.46875,10.520693779],[-61.474861145,10.514583588],[-61.47319412200001,10.504583359],[-61.475139618,10.498750687],[-61.47319412200001,10.495138168],[-61.47152710000001,10.495972633],[-61.470695496,10.494585037],[-61.47152710000001,10.483750343],[-61.474304199,10.481804848],[-61.473751068,10.479305267],[-61.477085114,10.474861145],[-61.480693817,10.461250305],[-61.48708343500001,10.449304581],[-61.487361908,10.437361717],[-61.49180603,10.432359695],[-61.49236297600001,10.429862022],[-61.489307404,10.427639961],[-61.492637634,10.428195953],[-61.494861603,10.423196793],[-61.49986267100001,10.420139313],[-61.498195648,10.419027328],[-61.49319458,10.420972824],[-61.489860535,10.419583321],[-61.49124908400001,10.409861565],[-61.495693207,10.40625],[-61.495418549,10.403194427],[-61.492916107,10.403473854],[-61.492084503,10.401807785],[-61.492084503,10.400138855],[-61.494861603,10.398195267],[-61.494861603,10.395973206],[-61.492916107,10.397360802],[-61.490695953,10.396248817],[-61.490139008,10.385972023],[-61.486526489,10.385418892],[-61.485694885,10.384028435],[-61.488193512,10.383472443],[-61.490695953,10.380694389],[-61.48236084,10.379584312],[-61.483470917,10.376250267],[-61.488750458,10.378749847],[-61.493751526,10.377916336],[-61.48597335800001,10.375693321],[-61.479862213,10.371526718],[-61.474861145,10.365695],[-61.471248627,10.365140915],[-61.467639923,10.36180687],[-61.463195801,10.348752022],[-61.464862823,10.345694542],[-61.460971832,10.343750954],[-61.46180725100001,10.335416794],[-61.459861755,10.330415726],[-61.46402740500001,10.324584007],[-61.46736145,10.324028015],[-61.47152710000001,10.325695992],[-61.46736145,10.322917938],[-61.467082977,10.320139885],[-61.462081909,10.319861412],[-61.46569442700001,10.318749428],[-61.464862823,10.315138817],[-61.467639923,10.310967445],[-61.44073486300001,10.310642242],[-61.436985016,10.314910889],[-61.43056488,10.313261986]]]}},{"type":"Feature","properties":{"shapeName":"Chaguanas","shapeISO":""},"geometry":{"type":"Polygon","coordinates":[[[-61.46402740500001,10.540579796],[-61.464862823,10.527916908],[-61.46875,10.522889137],[-61.44878006,10.522930145],[-61.44396209700001,10.520765305],[-61.43756485,10.513212204],[-61.433807373,10.516386986],[-61.430065155,10.51636982],[-61.425743103,10.51854229],[-61.424194336,10.507723808],[-61.415153503,10.499635696],[-61.407623291,10.499602318],[-61.400650024,10.501714706],[-61.396888733,10.505459785],[-61.39366531400001,10.505970001],[-61.392635345,10.503822327],[-61.373886108,10.503214836],[-61.371177673,10.504822731],[-61.374362946,10.51021862],[-61.36847305300001,10.512907028],[-61.36787796,10.517190933],[-61.369995117,10.519343376],[-61.375904083,10.520989418],[-61.377494812,10.524234772],[-61.37745285,10.530712128],[-61.373134613,10.531788826],[-61.364505768,10.53979969],[-61.36393737800001,10.546798706],[-61.363922119,10.549513817],[-61.366600037,10.552763939],[-61.368980408,10.565682411],[-61.415519714,10.564265251],[-61.43835067700001,10.565461159],[-61.447467804,10.562261581],[-61.453411102,10.549905777],[-61.456127167,10.547203064],[-61.458293915,10.540782928],[-61.46402740500001,10.540579796]]]}},{"type":"Feature","properties":{"shapeName":"Mayaro/Rio Claro","shapeISO":""},"geometry":{"type":"Polygon","coordinates":[[[-61.242729187,10.305825233],[-61.242485046,10.295677185],[-61.23773193400001,10.285415649],[-61.235054016,10.282735825],[-61.227077484,10.281603813],[-61.22547912600001,10.279976845],[-61.229766846,10.275138855],[-61.229793549,10.270852089],[-61.22659301800001,10.268693924],[-61.220222473,10.267569542],[-61.21697998,10.271888733],[-61.212146759,10.274009705],[-61.209430695,10.277235985],[-61.205696106,10.277742386],[-61.19131469700001,10.272817612],[-61.189155579,10.270664215],[-61.189174652,10.267949104],[-61.18224716200001,10.265250206],[-61.183506012,10.239916801],[-61.17559051500001,10.22263813],[-61.18101882900001,10.208137512],[-61.184322357,10.192483902],[-61.17741394,10.076485634],[-61.17458343500001,10.074860573],[-61.16847229,10.074860573],[-61.16541671800001,10.076526642],[-61.160972595,10.074860573],[-61.15625,10.078195572],[-61.15179443400001,10.078674316],[-61.147914886,10.082083702],[-61.14125061,10.083472252],[-61.138195038,10.085694313],[-61.13541793800001,10.08541584],[-61.134860992,10.086806297],[-61.125415802,10.089859962],[-61.11958313,10.096248627],[-61.112915039,10.097639084],[-61.111251831,10.096248627],[-61.109584808,10.098751068],[-61.107082367,10.097916603],[-61.095695496,10.107361794],[-61.09013748200001,10.106805801],[-61.08791732800001,10.110139847],[-61.075973511,10.110416412],[-61.073726654,10.112048149],[-61.069583893,10.111805916],[-61.06236267100001,10.11430645],[-61.055137634,10.127361298],[-61.049304962,10.134305954],[-61.021251678,10.153195381],[-61.01041793800001,10.154582977],[-61.002361298,10.151527405],[-61.000137329,10.147639275],[-61.000137329,10.140145302],[-61.001804352,10.137639999],[-61.003749847,10.137639999],[-61.00347137500001,10.136528015],[-60.995693207,10.137695312],[-60.99458313,10.136249542],[-60.99041748,10.135682106],[-60.99041748,10.137361526],[-60.987361908,10.138750076],[-60.987915039,10.140137672],[-60.990695953,10.139583588],[-60.994026184,10.147082329],[-61.003192902,10.200972557],[-61.003749847,10.220972061],[-60.999305725,10.253193855],[-60.99874877900001,10.289027214],[-60.995418549,10.307638168],[-60.987640381,10.324028015],[-60.98374939,10.329584122],[-60.974304199,10.326250076],[-60.97263717700001,10.326250076],[-60.971496582,10.328490257],[-60.969863892,10.327899933],[-60.97041702300001,10.332360268],[-60.967082977,10.340970993],[-60.969604492,10.34130764],[-60.97041702300001,10.339860916],[-60.974029541,10.339304924],[-60.979515076,10.340402603],[-60.982639313,10.335972786],[-60.990695953,10.337082863],[-61.001251221,10.349862099],[-61.010692596,10.368473053],[-61.01763916,10.388472557],[-61.020973206,10.392360687],[-61.020694733,10.396529198],[-61.033473969,10.439651489],[-61.089813232,10.439421654],[-61.096767426,10.44107151],[-61.108097076,10.435213089],[-61.115585327,10.435246468],[-61.12939453100001,10.448788643],[-61.126708984,10.452540398],[-61.12830352800001,10.454166412],[-61.135250092,10.45634079],[-61.143825531,10.456377983],[-61.14709472700001,10.45100975],[-61.148765564,10.444014549],[-61.151954651,10.441884041],[-61.15781784100001,10.448912621],[-61.16156005900001,10.448929787],[-61.180942535,10.436058044],[-61.184738159,10.435026169],[-61.19217681900001,10.440442085],[-61.199192047,10.433679581],[-61.20621109000001,10.425928116],[-61.212738037,10.414668083],[-61.219223022,10.408219337],[-61.21978759800001,10.40231514],[-61.224143982,10.395856857],[-61.21825027500001,10.392591476],[-61.207572937,10.390399933],[-61.202781677,10.386043549],[-61.202812195,10.381756783],[-61.20608139,10.374769211],[-61.206703186,10.361291885],[-61.212692261,10.351078033],[-61.211105347,10.348356247],[-61.211791992,10.325210571],[-61.215579987,10.31765461],[-61.228439331,10.317712784],[-61.232223511,10.310729027],[-61.236507416,10.306461334],[-61.242729187,10.305825233]]]}},{"type":"Feature","properties":{"shapeName":"Sangre Grande","shapeISO":""},"geometry":{"type":"Polygon","coordinates":[[[-61.236743927,10.592592239],[-61.22108078,10.577999115],[-61.221126556,10.572615623],[-61.222766876,10.569383621],[-61.217975616,10.563980103],[-61.22290802,10.552663803],[-61.217514038,10.551545143],[-61.215919495,10.549394608],[-61.215938568,10.547250748],[-61.21975708,10.544028282],[-61.219776154,10.541884422],[-61.219226837,10.539166451],[-61.216018677,10.537532806],[-61.224132538,10.530566216],[-61.224720001,10.522470474],[-61.207572937,10.521871567],[-61.202796936,10.520231247],[-61.20173645,10.516987801],[-61.206768036,10.492762566],[-61.208927155,10.489532471],[-61.215927124,10.484752655],[-61.216472626,10.482039452],[-61.220287323,10.478816986],[-61.220302582,10.47667408],[-61.217105865,10.473944664],[-61.212802887,10.472877502],[-61.219299316,10.465904236],[-61.217220306,10.459416389],[-61.197914124,10.457187653],[-61.196365356,10.455560684],[-61.196937561,10.449085236],[-61.19909668,10.445331573],[-61.199192047,10.433679581],[-61.19217681900001,10.440442085],[-61.184738159,10.435026169],[-61.180942535,10.436058044],[-61.16156005900001,10.448929787],[-61.15781784100001,10.448912621],[-61.151954651,10.441884041],[-61.148765564,10.444014549],[-61.14709472700001,10.45100975],[-61.143825531,10.456377983],[-61.135250092,10.45634079],[-61.12830352800001,10.454166412],[-61.126708984,10.452540398],[-61.12939453100001,10.448788643],[-61.115585327,10.435246468],[-61.108097076,10.435213089],[-61.096767426,10.44107151],[-61.089813232,10.439421654],[-61.033473969,10.439651489],[-61.04041671800001,10.464859962],[-61.04347229,10.492916107],[-61.043193817,10.507918358],[-61.040138245,10.515137672],[-61.029582977,10.515137672],[-61.023193359,10.523195267],[-61.018470764,10.523751259],[-61.012916565,10.521806717],[-61.011806488,10.530417442],[-61.01374816900001,10.531526566],[-61.013473511,10.534860611],[-61.015140533,10.535140038],[-61.015693665,10.541806221],[-61.02013778700001,10.55569458],[-61.01902771000001,10.557639122],[-61.020694733,10.558749199],[-61.021526337,10.564306259],[-61.019859314,10.575140953],[-61.021526337,10.57708168],[-61.025138855,10.606806755],[-61.027362823,10.615974426],[-61.029582977,10.617639542],[-61.029026031,10.624028206],[-61.036804199,10.657917023],[-61.038192749,10.674861908],[-61.037361145,10.687083244],[-61.032081604,10.689305305],[-61.030971527,10.695417404],[-61.02652740500001,10.702918053],[-61.022083282,10.703193665],[-61.021251678,10.705140114],[-61.01763916,10.706250191],[-61.009860992,10.702083588],[-60.998195648,10.703749657],[-60.995418549,10.707360268],[-60.995693207,10.712917328],[-60.99124908400001,10.719861031],[-60.987640381,10.721248627],[-60.987361908,10.718473434],[-60.984584808,10.717082977],[-60.985416412,10.725418091],[-60.979862213,10.73097229],[-60.98097229,10.734862328],[-60.974582672,10.739028931],[-60.974582672,10.741526604],[-60.969028473,10.742638588],[-60.969581604,10.747638702],[-60.964862823,10.750988007],[-60.964305878,10.75402832],[-60.96291732800001,10.753472328],[-60.961528778,10.755417824],[-60.95763778700001,10.756527901],[-60.94708252,10.764584541],[-60.948192596,10.772083282],[-60.945137024,10.773751259],[-60.94569397,10.784028053],[-60.94374847400001,10.784584045],[-60.944583893,10.789582253],[-60.940692902,10.792936325],[-60.937637329,10.803474426],[-60.93402862500001,10.804305077],[-60.93347168,10.805695534],[-60.93069458,10.804305077],[-60.925140381,10.805971146],[-60.924304962,10.809306145],[-60.919029236,10.809862137],[-60.919029236,10.811528206],[-60.915138245,10.815693855],[-60.912639618,10.814583778],[-60.91069412200001,10.81680584],[-60.91541671800001,10.825972557],[-60.913749695,10.827917099],[-60.914028168,10.83013916],[-60.91069412200001,10.831249237],[-60.908748627,10.834861755],[-60.91069412200001,10.83597374],[-60.924304962,10.835971832],[-60.925140381,10.838472366],[-60.931526184,10.839028358],[-60.934307098,10.842362404],[-60.939025879,10.844306946],[-60.940692902,10.840997696],[-60.945972443,10.83986187],[-60.945415497,10.837637901],[-60.94708252,10.835140228],[-60.951805115,10.833472252],[-60.952915192,10.835140228],[-60.955696106,10.834305763],[-60.955696106,10.836250305],[-60.960693359,10.834861755],[-60.966526031,10.837916374],[-60.97152710000001,10.835140228],[-60.977085114,10.837083817],[-60.99180603,10.835140228],[-60.998195648,10.839028358],[-61.001525879,10.837637901],[-61.00347137500001,10.841806412],[-61.00680542,10.844028473],[-61.010139465,10.841527939],[-61.014862061,10.84375],[-61.022361755,10.84375],[-61.034862518,10.840971947],[-61.03569412200001,10.839307785],[-61.038471222,10.84125042],[-61.043750763,10.840971947],[-61.04486084,10.833472252],[-61.049304962,10.829583168],[-61.053470612,10.829304695],[-61.059307098,10.832915306],[-61.06236267100001,10.833195686],[-61.063751221,10.830973625],[-61.06986236600001,10.831526756],[-61.07208252,10.828748703],[-61.074306488,10.829860687],[-61.079860687,10.827917099],[-61.08291626,10.828471184],[-61.086250305,10.825416565],[-61.09763717700001,10.825139046],[-61.100418091,10.8223629],[-61.106250763,10.822916985],[-61.11624908400001,10.819581985],[-61.12486267100001,10.821806908],[-61.125694275,10.823195457],[-61.129306793,10.820973396],[-61.13319397,10.822083473],[-61.139026642,10.820973396],[-61.142360687,10.822639465],[-61.148193359,10.817638397],[-61.151805878,10.816808701],[-61.15319442700001,10.812917709],[-61.158748627,10.811249733],[-61.16569519,10.813194275],[-61.170028687,10.809306145],[-61.170051575,10.79566288],[-61.167388916,10.795658112],[-61.16686630200001,10.797259331],[-61.16143798800001,10.79616642],[-61.156047821,10.788188934],[-61.15280151400001,10.774310112],[-61.153373718,10.76949501],[-61.157661438,10.760953903],[-61.166843414,10.761492729],[-61.170600891,10.759894371],[-61.17597580000001,10.759906769],[-61.178642273,10.757786751],[-61.178646088,10.753486633],[-61.182979584,10.747116089],[-61.18945694,10.74230957],[-61.192131042,10.734276772],[-61.19808578500001,10.729467392],[-61.211528778,10.727377892],[-61.22713089,10.72851181],[-61.230361938,10.727953911],[-61.231937408,10.725309372],[-61.237865448,10.730674744],[-61.242141724,10.730688095],[-61.24376297,10.72799778],[-61.244861603,10.724263191],[-61.241641998,10.720514297],[-61.23143768300001,10.716741562],[-61.224967957,10.718330383],[-61.22179031400001,10.71723175],[-61.220703125,10.715097427],[-61.212627411,10.713983536],[-61.209407806,10.710753441],[-61.213222504,10.694701195],[-61.21057891800001,10.690947533],[-61.210597992,10.687722206],[-61.213863373,10.680760384],[-61.217624664,10.678590775],[-61.217651367,10.673797607],[-61.221427917,10.669491768],[-61.225761414,10.667370796],[-61.226295471,10.665236473],[-61.222557068,10.663038254],[-61.223098755,10.65981102],[-61.225826263,10.656639099],[-61.224758148,10.652312279],[-61.214561462,10.650658607],[-61.202819824,10.63934803],[-61.202877045,10.631785393],[-61.204517365,10.628556252],[-61.19919586200001,10.623681068],[-61.20199203500001,10.612931252],[-61.2057724,10.609184265],[-61.207988739,10.600047112],[-61.212306976,10.600065231],[-61.214939117,10.602744102],[-61.228889465,10.601756096],[-61.236743927,10.592592239]]]}},{"type":"Feature","properties":{"shapeName":"Princes Town","shapeISO":""},"geometry":{"type":"Polygon","coordinates":[[[-61.44480514500001,10.265130997],[-61.44095993,10.259977341],[-61.43404007,10.254564285],[-61.424995422,10.249664307],[-61.410041809,10.245308876],[-61.40521240200001,10.248476982],[-61.398277283,10.246872902],[-61.386566162,10.236008644],[-61.372207642,10.226798058],[-61.37115097,10.220316887],[-61.37650299100001,10.216056824],[-61.377082825,10.212821007],[-61.374931335,10.208477974],[-61.373950958,10.194473267],[-61.377689362,10.191824913],[-61.375011444,10.189098358],[-61.377189636,10.186965942],[-61.383045197,10.186993599],[-61.384654999,10.185381889],[-61.382549286,10.181038857],[-61.381526947,10.070694923],[-61.377639771,10.072360992],[-61.362361908,10.070694923],[-61.342918396,10.074027061],[-61.33263778700001,10.073748589],[-61.325695038,10.078748703],[-61.321529388,10.078195572],[-61.315380096,10.080451965],[-61.313472748,10.078471184],[-61.300971985,10.084028244],[-61.282360077,10.086806297],[-61.267360687,10.08541584],[-61.26374816900001,10.080694199],[-61.24986267100001,10.084028244],[-61.24458313,10.080140114],[-61.24180603,10.080417633],[-61.236804962,10.077361107],[-61.234027863,10.077918053],[-61.232082367,10.075972557],[-61.222915649,10.075139046],[-61.22041702300001,10.074027061],[-61.220695496,10.072639465],[-61.208194733,10.072639465],[-61.199584961,10.077361107],[-61.191806793,10.079584122],[-61.18737793,10.078492165],[-61.187084198,10.076526642],[-61.17741394,10.076485634],[-61.184322357,10.192483902],[-61.18101882900001,10.208137512],[-61.17559051500001,10.22263813],[-61.183506012,10.239916801],[-61.18224716200001,10.265250206],[-61.189174652,10.267949104],[-61.189155579,10.270664215],[-61.19131469700001,10.272817612],[-61.205696106,10.277742386],[-61.209430695,10.277235985],[-61.212146759,10.274009705],[-61.21697998,10.271888733],[-61.220222473,10.267569542],[-61.22659301800001,10.268693924],[-61.229793549,10.270852089],[-61.229766846,10.275138855],[-61.22547912600001,10.279976845],[-61.227077484,10.281603813],[-61.235054016,10.282735825],[-61.23773193400001,10.285415649],[-61.242485046,10.295677185],[-61.242729187,10.305825233],[-61.242919922,10.308634758],[-61.250907898,10.316196442],[-61.25087738,10.320530891],[-61.253005981,10.320540428],[-61.25677490200001,10.31517601],[-61.258361816,10.318421364],[-61.272220612,10.324391365],[-61.27541732800001,10.327120781],[-61.279197693,10.327137947],[-61.28186035200001,10.324958801],[-61.288791656,10.327705383],[-61.289291382,10.330946922],[-61.294109344,10.331492424],[-61.299987793,10.336901665],[-61.309593201,10.335326195],[-61.311790466,10.331573486],[-61.315013885,10.329969406],[-61.315525055,10.331590652],[-61.321388245,10.331093788],[-61.334716797,10.339775085],[-61.342750549,10.340335846],[-61.3475914,10.337120056],[-61.355068207,10.335535049],[-61.357803345,10.328546524],[-61.370101929,10.326459885],[-61.388809204,10.328165054],[-61.394683838,10.3254776],[-61.397384644,10.323871613],[-61.397396088,10.322252274],[-61.394710541,10.32009697],[-61.394721985,10.317954063],[-61.405464172,10.315289497],[-61.411880493,10.307794571],[-61.41506958,10.312666893],[-61.423595428,10.318087578],[-61.43056488,10.313261986],[-61.434940338,10.297139168],[-61.436023712,10.286906242],[-61.438220978,10.282059669],[-61.438259125,10.273440361],[-61.440402985,10.268593788],[-61.44480514500001,10.265130997]]]}},{"type":"Feature","properties":{"shapeName":"Penal-Debe","shapeISO":""},"geometry":{"type":"Polygon","coordinates":[[[-61.501251221,10.246527672],[-61.521800995,10.235973358],[-61.521755219,10.233977318],[-61.51907348600001,10.231250763],[-61.50841522200001,10.227962494],[-61.501491547,10.224168777],[-61.500411987,10.221449852],[-61.502544403,10.219316483],[-61.50151825000001,10.21607399],[-61.490825653,10.209024429],[-61.47912216200001,10.207921982],[-61.468986511,10.20463562],[-61.467906952,10.202487946],[-61.47166824300001,10.193840027],[-61.475448608,10.178240776],[-61.47335434,10.169089317],[-61.469108582,10.168544769],[-61.467510223,10.166347504],[-61.473384857,10.158852577],[-61.47290039100001,10.148089409],[-61.47130966200001,10.14322567],[-61.477752686,10.135162354],[-61.484127045,10.133573532],[-61.493247986,10.128236771],[-61.506038666,10.127250671],[-61.508174896,10.123451233],[-61.50819778400001,10.114833832],[-61.51411056500001,10.11057663],[-61.509971619,10.105578423],[-61.50762558000001,10.096593857],[-61.503364563,10.096564293],[-61.502285004,10.094865799],[-61.504997253,10.093194008],[-61.509395599,10.081429482],[-61.505844116,10.071563721],[-61.501525879,10.071250916],[-61.498195648,10.067083359],[-61.48597335800001,10.068751335],[-61.479026794,10.06791687],[-61.460414886,10.070694923],[-61.453472137,10.073748589],[-61.448471069,10.073471069],[-61.445972443,10.071805],[-61.432640076,10.073195457],[-61.43069458,10.071526527],[-61.42510986300001,10.074523926],[-61.410415649,10.076805115],[-61.40680694600001,10.07569313],[-61.405418396,10.073471069],[-61.399860382,10.074304581],[-61.396251678,10.072083473],[-61.388473511,10.072639465],[-61.385139465,10.069028854],[-61.381526947,10.070694923],[-61.382549286,10.181038857],[-61.384654999,10.185381889],[-61.383045197,10.186993599],[-61.377189636,10.186965942],[-61.375011444,10.189098358],[-61.377689362,10.191824913],[-61.373950958,10.194473267],[-61.374931335,10.208477974],[-61.377082825,10.212821007],[-61.37650299100001,10.216056824],[-61.37115097,10.220316887],[-61.372207642,10.226798058],[-61.386566162,10.236008644],[-61.398277283,10.246872902],[-61.40521240200001,10.248476982],[-61.410041809,10.245308876],[-61.424995422,10.249664307],[-61.43404007,10.254564285],[-61.44095993,10.259977341],[-61.44480514500001,10.265130997],[-61.447380066,10.260531425],[-61.45432663,10.26003933],[-61.45701217700001,10.261147499],[-61.464481354,10.259563446],[-61.474132538,10.254752159],[-61.481082916,10.253165245],[-61.487522125,10.247815132],[-61.501251221,10.246527672]]]}},{"type":"Feature","properties":{"shapeName":"Point Fortin","shapeISO":""},"geometry":{"type":"Polygon","coordinates":[[[-61.63763809200001,10.212361336],[-61.640972137,10.20902729],[-61.64263916,10.209583282],[-61.642578125,10.207092285],[-61.646251678,10.203194618],[-61.65319442700001,10.19879818],[-61.655418396,10.198749542],[-61.65680694600001,10.196249962],[-61.673820496,10.189579964],[-61.685974121,10.187084198],[-61.688472748,10.18764019],[-61.69374847400001,10.195416451],[-61.700973511,10.210416794],[-61.700416565,10.212361336],[-61.703193665,10.211526871],[-61.690692902,10.188194275],[-61.692359924,10.188194275],[-61.69263839700001,10.185695648],[-61.69569397,10.188194275],[-61.697368622,10.18597126],[-61.695102692,10.183757782],[-61.69430542,10.179861069],[-61.694583893,10.177360535],[-61.69791793800001,10.173473358],[-61.696804047,10.16708374],[-61.704536438,10.163749695],[-61.70349884,10.151852608],[-61.700862885,10.150220871],[-61.700309753,10.145409584],[-61.698196411,10.142162323],[-61.683799744,10.143140793],[-61.662372589,10.161369324],[-61.658123016,10.161349297],[-61.655937195,10.166719437],[-61.64686965900001,10.169913292],[-61.643100739,10.183369637],[-61.632400513,10.195697784],[-61.63078689600001,10.200022697],[-61.63763809200001,10.212361336]]]}},{"type":"Feature","properties":{"shapeName":"Siparia","shapeISO":""},"geometry":{"type":"Polygon","coordinates":[[[-61.521800995,10.235973358],[-61.524028778,10.235694885],[-61.52763748200001,10.232083321],[-61.534862518,10.230417252],[-61.548194885,10.229028702],[-61.55958175700001,10.229582787],[-61.58013916,10.234861374],[-61.586528778,10.240139961],[-61.609859467,10.246250153],[-61.61920166,10.251281738],[-61.624305725,10.247916222],[-61.633472443,10.247083664],[-61.63341522200001,10.24541378],[-61.63763809200001,10.242918015],[-61.639026642,10.23624897],[-61.63652801500001,10.234582901],[-61.635692596,10.22819519],[-61.636806488,10.226806641],[-61.63236236600001,10.22263813],[-61.631526947,10.219088554],[-61.63763809200001,10.212361336],[-61.63078689600001,10.200022697],[-61.632400513,10.195697784],[-61.643100739,10.183369637],[-61.64686965900001,10.169913292],[-61.655937195,10.166719437],[-61.658123016,10.161349297],[-61.662372589,10.161369324],[-61.683799744,10.143140793],[-61.698196411,10.142162323],[-61.700309753,10.145409584],[-61.700862885,10.150220871],[-61.70349884,10.151852608],[-61.704536438,10.163749695],[-61.725128174,10.155652046],[-61.74652862500001,10.151250839],[-61.77541732800001,10.148195267],[-61.787918091,10.148472786],[-61.79069519,10.144304276],[-61.800682068,10.141811371],[-61.80040741,10.138743401],[-61.806251526,10.13569355],[-61.82624816900001,10.134584427],[-61.824584961,10.130139351],[-61.824913025,10.120401382],[-61.827083588,10.11680603],[-61.830970764,10.114582062],[-61.83430481,10.105971336],[-61.853748322,10.095417023],[-61.869304657,10.092359543],[-61.88189697300001,10.092917442],[-61.888195038,10.089028358],[-61.908473969,10.087362289],[-61.908195496,10.081806183],[-61.912361145,10.075139046],[-61.929321289,10.060730934],[-61.930137634,10.051804543],[-61.929027557,10.049027443],[-61.921806335,10.045139313],[-61.914859772,10.043473244],[-61.897083282,10.044583321],[-61.88652801500001,10.049583435],[-61.87847137500001,10.056528091],[-61.86458206200001,10.064860344],[-61.857639313,10.065416336],[-61.848751068,10.070973396],[-61.84375,10.071526527],[-61.8409729,10.074583054],[-61.828193665,10.081806183],[-61.807640076,10.087637901],[-61.797916412,10.087637901],[-61.792598724,10.086024284],[-61.784275055,10.079620361],[-61.780971527,10.075139046],[-61.770973206,10.080140114],[-61.755973816,10.085140228],[-61.750137329,10.08541584],[-61.74708175700001,10.084028244],[-61.734027863,10.087362289],[-61.725139618,10.087362289],[-61.721805573,10.085694313],[-61.710971832,10.084859848],[-61.695415497,10.087362289],[-61.688865662,10.084305763],[-61.686805725,10.081806183],[-61.678195953,10.082637787],[-61.66541671800001,10.077638626],[-61.65902710000001,10.068751335],[-61.652938843,10.065137863],[-61.651248932,10.059583664],[-61.647640228,10.060137749],[-61.644859314,10.05819416],[-61.640686035,10.060730934],[-61.634277344,10.060730934],[-61.627639771,10.055418015],[-61.605415344,10.067083359],[-61.60180664100001,10.067323685],[-61.599029541,10.064304352],[-61.587097168,10.071290016],[-61.572639465,10.073748589],[-61.562637329,10.073195457],[-61.55958175700001,10.071250916],[-61.545139313,10.072360992],[-61.54041671800001,10.074583054],[-61.53513717700001,10.073471069],[-61.52763748200001,10.074304581],[-61.520973206,10.070138931],[-61.514583588,10.071805],[-61.505844116,10.071563721],[-61.509395599,10.081429482],[-61.504997253,10.093194008],[-61.502285004,10.094865799],[-61.503364563,10.096564293],[-61.50762558000001,10.096593857],[-61.509971619,10.105578423],[-61.51411056500001,10.11057663],[-61.50819778400001,10.114833832],[-61.508174896,10.123451233],[-61.506038666,10.127250671],[-61.493247986,10.128236771],[-61.484127045,10.133573532],[-61.477752686,10.135162354],[-61.47130966200001,10.14322567],[-61.47290039100001,10.148089409],[-61.473384857,10.158852577],[-61.467510223,10.166347504],[-61.469108582,10.168544769],[-61.47335434,10.169089317],[-61.475448608,10.178240776],[-61.47166824300001,10.193840027],[-61.467906952,10.202487946],[-61.468986511,10.20463562],[-61.47912216200001,10.207921982],[-61.490825653,10.209024429],[-61.50151825000001,10.21607399],[-61.502544403,10.219316483],[-61.500411987,10.221449852],[-61.501491547,10.224168777],[-61.50841522200001,10.227962494],[-61.51907348600001,10.231250763],[-61.521755219,10.233977318],[-61.521800995,10.235973358]]]}},{"type":"Feature","properties":{"shapeName":"Tobago","shapeISO":""},"geometry":{"type":"MultiPolygon","coordinates":[[[[-60.51263809200001,11.359305382],[-60.515140533,11.357916832],[-60.519584656,11.358751297],[-60.522640228,11.356250763],[-60.52819442700001,11.358195305],[-60.52986145,11.354584694],[-60.527915955,11.352915764],[-60.522640228,11.353194237],[-60.518196106,11.356250763],[-60.513473511,11.356526375],[-60.51263809200001,11.359305382]]],[[[-60.551807404,11.264583588],[-60.550415039,11.266530037],[-60.546806335,11.266530037],[-60.544029236,11.257917404],[-60.535972595,11.254583359],[-60.533748627,11.257082939],[-60.53513717700001,11.259583473],[-60.531528473,11.260696411],[-60.53180694600001,11.264583588],[-60.529582977,11.26902771],[-60.526805878,11.266805649],[-60.52541732800001,11.269583702],[-60.524860382,11.276526451],[-60.52986145,11.277639389],[-60.526248932,11.279305458],[-60.525970459,11.281806946],[-60.527915955,11.282361031],[-60.52819442700001,11.284029007],[-60.526248932,11.282917023],[-60.523750305,11.283748627],[-60.522361755,11.28958416],[-60.523471832,11.291806221],[-60.527362823,11.293749809],[-60.52986145,11.292639732],[-60.532360077,11.294028282],[-60.533473969,11.301807404],[-60.531528473,11.30402565],[-60.52819442700001,11.30402565],[-60.529026031,11.306804657],[-60.524860382,11.306804657],[-60.526805878,11.312639236],[-60.525138855,11.312916756],[-60.522914886,11.310973167],[-60.52013778700001,11.311804771],[-60.521526337,11.313195229],[-60.520973206,11.317640305],[-60.522083282,11.318750381],[-60.52041626,11.319306374],[-60.519859314,11.317084312],[-60.517360687,11.315971375],[-60.517082214,11.322917938],[-60.52013778700001,11.323749542],[-60.518470764,11.330138206],[-60.522083282,11.330972672],[-60.519306183,11.336528778],[-60.527915955,11.337917328],[-60.52763748200001,11.340695381],[-60.52986145,11.343193054],[-60.5284729,11.347084045],[-60.533748627,11.345417976],[-60.535972595,11.339860916],[-60.54041671800001,11.342918396],[-60.54041671800001,11.341249466],[-60.543193817,11.341529846],[-60.544029236,11.339583397],[-60.546806335,11.340695381],[-60.548751831,11.338194847],[-60.55374908400001,11.336805344],[-60.557640076,11.339306831],[-60.55847168,11.336805344],[-60.55597305300001,11.332638741],[-60.549861908,11.330695152],[-60.549304962,11.323472023],[-60.552360535,11.319862366],[-60.556526184,11.321528435],[-60.559581757,11.317917824],[-60.563194275,11.318473816],[-60.564304352,11.315692902],[-60.56986236600001,11.31652832],[-60.569583893,11.319862366],[-60.573192596,11.319583893],[-60.575695038,11.325971603],[-60.57513809200001,11.328472137],[-60.577640533,11.327637672],[-60.581249237,11.329582214],[-60.58263778700001,11.32875061],[-60.58291626,11.330138206],[-60.588748932,11.327363014],[-60.59180450400001,11.328193665],[-60.59763717700001,11.322361946],[-60.601249695,11.321528435],[-60.604305267,11.323749542],[-60.607917786,11.32319355],[-60.610694885,11.324861526],[-60.613750458,11.319583893],[-60.615970612,11.319583893],[-60.61541748,11.317084312],[-60.624305725,11.315971375],[-60.62486267100001,11.31347084],[-60.632915497,11.309026718],[-60.63013839700001,11.302638054],[-60.636806488,11.302638054],[-60.63763809200001,11.306248665],[-60.640140533,11.306529045],[-60.639026642,11.304861069],[-60.640563965,11.304861069],[-60.647083282,11.306804657],[-60.647361755,11.305459023],[-60.64930725100001,11.30569458],[-60.648193359,11.303473473],[-60.652084351,11.302916527],[-60.65041732800001,11.299305916],[-60.654582977,11.300418854],[-60.657081604,11.298195839],[-60.658195496,11.299861908],[-60.664028168,11.300418854],[-60.668193817,11.296527863],[-60.671527863,11.297916412],[-60.670417786,11.291250229],[-60.671806335,11.290140152],[-60.67458343500001,11.290417671],[-60.676807404,11.292916298],[-60.67986297600001,11.28958416],[-60.68069458,11.29208374],[-60.685417175,11.292916298],[-60.68736267100001,11.290693283],[-60.686527252,11.289027214],[-60.696804047,11.289027214],[-60.696804047,11.287361145],[-60.699306488,11.285972595],[-60.698471069,11.282917023],[-60.695972443,11.280694962],[-60.698471069,11.276250839],[-60.70763778700001,11.272638321],[-60.710971832,11.268750191],[-60.715415955,11.268194199],[-60.71680450400001,11.262084007],[-60.719028473,11.260696411],[-60.72263717700001,11.261529922],[-60.725692749,11.257917404],[-60.724861145,11.256251335],[-60.727638245,11.25680542],[-60.72791671800001,11.254027367],[-60.730415344,11.254862785],[-60.731803894,11.254583359],[-60.731250763,11.253748894],[-60.737640381,11.253473282],[-60.741527557,11.250139236],[-60.742084503,11.251251221],[-60.744861603,11.250416756],[-60.744026184,11.248473167],[-60.749027252,11.248473167],[-60.748474121,11.245415688],[-60.750972748,11.24597168],[-60.750972748,11.243749619],[-60.75291824300001,11.242637634],[-60.752082825,11.241527557],[-60.755973816,11.238750458],[-60.75541687,11.235695839],[-60.758472443,11.236251831],[-60.760139465,11.235139847],[-60.75958252,11.233470917],[-60.764026642,11.232363701],[-60.766529083,11.230138779],[-60.765693665,11.227360725],[-60.76763916,11.228751183],[-60.77180481,11.225694656],[-60.774028778,11.227360725],[-60.775138855,11.224305153],[-60.7784729,11.225138664],[-60.781528473,11.222640991],[-60.781528473,11.219584465],[-60.778751373,11.220137596],[-60.777362823,11.21875],[-60.777915955,11.214305878],[-60.781528473,11.210417747],[-60.786251068,11.208195686],[-60.784862518,11.20513916],[-60.787082672,11.202638626],[-60.794029236,11.200695038],[-60.793750763,11.199304581],[-60.79847335800001,11.199584961],[-60.799026489,11.197918892],[-60.795970917,11.194584846],[-60.797359467,11.18764019],[-60.799304962,11.186528206],[-60.801250458,11.18735981],[-60.800971985,11.186249733],[-60.803195953,11.185137749],[-60.804584503,11.185972214],[-60.807361603,11.184306145],[-60.810417175,11.186249733],[-60.811527252,11.182917595],[-60.80708313,11.179582596],[-60.80708313,11.177639008],[-60.811527252,11.173473358],[-60.816249847,11.172638893],[-60.820415497,11.173750877],[-60.824859619,11.172361374],[-60.825416565,11.168750763],[-60.820972443,11.171251297],[-60.818195343,11.170418739],[-60.817081451,11.167637825],[-60.829303741,11.166527748],[-60.834861755,11.167360306],[-60.836250305,11.171805382],[-60.839305878,11.173473358],[-60.84180450400001,11.165971756],[-60.83902740500001,11.158472061],[-60.841251373,11.154862404],[-60.845695496,11.153473854],[-60.845695496,11.147083282],[-60.8409729,11.143195152],[-60.83291626,11.145694733],[-60.831806183,11.147639275],[-60.814582825,11.147639275],[-60.810974121,11.145417213],[-60.800693512,11.143472672],[-60.800415039,11.135417938],[-60.798751831,11.134028435],[-60.784862518,11.134584427],[-60.782081604,11.137638092],[-60.783195496,11.145417213],[-60.77986145,11.144305229],[-60.778751373,11.145973206],[-60.7784729,11.140973091],[-60.77180481,11.141806602],[-60.770973206,11.143195152],[-60.774028778,11.149582863],[-60.768470764,11.160140038],[-60.763473511,11.165415764],[-60.757083893,11.164582253],[-60.753749847,11.165694237],[-60.752361298,11.169306755],[-60.74180603,11.180695534],[-60.738471985,11.181529999],[-60.736526489,11.178473473],[-60.734027863,11.178473473],[-60.727359772,11.171805382],[-60.723472595,11.171251297],[-60.72263717700001,11.16986084],[-60.719028473,11.170695305],[-60.717639923,11.168194771],[-60.71569442700001,11.168194771],[-60.713195801,11.170972824],[-60.71291732800001,11.174583435],[-60.708751678,11.176804543],[-60.705970764,11.177083015],[-60.704860687,11.174027443],[-60.702083588,11.173194885],[-60.699859619,11.176527023],[-60.702083588,11.180138588],[-60.698749542,11.180138588],[-60.696804047,11.184027672],[-60.697360992,11.18735981],[-60.69291687,11.192084312],[-60.688751221,11.193471909],[-60.681251526,11.190137863],[-60.673194885,11.192918777],[-60.664859772,11.192638397],[-60.66069412200001,11.187084198],[-60.661529541,11.184583664],[-60.654582977,11.189862251],[-60.652915955,11.189862251],[-60.652362823,11.188194275],[-60.645694733,11.189306259],[-60.644306183,11.19152832],[-60.640140533,11.192638397],[-60.639862061,11.194028854],[-60.634304047,11.197360992],[-60.633472443,11.199860573],[-60.63013839700001,11.201526642],[-60.626251221,11.209305763],[-60.620418549,11.211806297],[-60.617637634,11.215971947],[-60.615139008,11.215971947],[-60.614582062,11.218194008],[-60.611251831,11.218471527],[-60.60736084,11.221529007],[-60.60291671800001,11.220972061],[-60.600971222,11.22402668],[-60.598472595,11.223195076],[-60.598472595,11.220693588],[-60.593471527,11.222359657],[-60.593193054,11.223751068],[-60.596248627,11.224861145],[-60.594028473,11.225973129],[-60.597362518,11.231527328],[-60.5909729,11.240415573],[-60.585693359,11.240694046],[-60.58430481,11.24569416],[-60.57402801500001,11.24902916],[-60.570415497,11.245415688],[-60.563194275,11.246250153],[-60.559860229,11.242083549],[-60.552639008,11.244028091],[-60.55291748,11.24569416],[-60.551250458,11.246250153],[-60.553470612,11.249860764],[-60.550971985,11.251805305],[-60.550693512,11.254583359],[-60.55486297600001,11.262084007],[-60.554027557,11.264027596],[-60.551807404,11.264583588]]],[[[-60.50513839700001,11.307639122],[-60.50736236600001,11.307641029],[-60.508472443,11.305138588],[-60.505695343,11.300694466],[-60.50819397,11.297916412],[-60.50819397,11.295140266],[-60.503192902,11.295140266],[-60.502361298,11.292916298],[-60.502082825,11.295694351],[-60.49597168,11.29347229],[-60.494026184,11.295417786],[-60.492084503,11.295140266],[-60.492916107,11.297362328],[-60.498195648,11.299305916],[-60.49597168,11.301807404],[-60.49652862500001,11.302916527],[-60.499305725,11.30402565],[-60.501804352,11.302640915],[-60.50513839700001,11.307639122]]],[[[-60.517360687,11.303750992],[-60.518470764,11.304582596],[-60.518749237,11.301807404],[-60.521251678,11.299584389],[-60.520694733,11.297637939],[-60.518470764,11.297362328],[-60.518196106,11.300971985],[-60.515415192,11.300971985],[-60.517360687,11.303750992]]],[[[-60.559307098,11.241250038],[-60.561527252,11.240415573],[-60.55847168,11.237636566],[-60.556251526,11.237636566],[-60.559307098,11.241250038]]],[[[-60.593471527,11.219028473],[-60.59513855,11.219305992],[-60.59652710000001,11.217082024],[-60.591251373,11.21625042],[-60.59069442700001,11.219028473],[-60.593471527,11.219028473]]]]}}]}